CCSDS_OMM_VERS = 2.0
CREATION_DATE  = 
ORIGINATOR     = 

OBJECT_NAME    = DELTA 2 R/B(1)
OBJECT_ID      = 1990-008B
CENTER_NAME    = EARTH
REF_FRAME      = TEME
TIME_SYSTEM    = UTC
MEAN_ELEMENT_THEORY = SGP/SGP4

EPOCH          = 2026-01-13T12:10:47.929152
MEAN_MOTION    = 15.48485338
ECCENTRICITY   = .01021789
INCLINATION    = 35.6030
RA_OF_ASC_NODE = 174.9141
ARG_OF_PERICENTER = 108.2786
MEAN_ANOMALY   = 252.9097

EPHEMERIS_TYPE = 0
CLASSIFICATION_TYPE = U
NORAD_CAT_ID   = 20453
ELEMENT_SET_NO = 999
REV_AT_EPOCH   = 91755
BSTAR          = .68497934E-3
MEAN_MOTION_DOT = .46638E-3
MEAN_MOTION_DDOT = 0

CCSDS_OMM_VERS = 2.0
CREATION_DATE  = 
ORIGINATOR     = 

OBJECT_NAME    = COSMOS 2058
OBJECT_ID      = 1990-010A
CENTER_NAME    = EARTH
REF_FRAME      = TEME
TIME_SYSTEM    = UTC
MEAN_ELEMENT_THEORY = SGP/SGP4

EPOCH          = 2026-01-13T11:40:25.188096
MEAN_MOTION    = 15.10804709
ECCENTRICITY   = .00103109
INCLINATION    = 82.4688
RA_OF_ASC_NODE = 101.8025
ARG_OF_PERICENTER = 159.1665
MEAN_ANOMALY   = 200.9987

EPHEMERIS_TYPE = 0
CLASSIFICATION_TYPE = U
NORAD_CAT_ID   = 20465
ELEMENT_SET_NO = 999
REV_AT_EPOCH   = 93390
BSTAR          = .1638766E-3
MEAN_MOTION_DOT = .2753E-4
MEAN_MOTION_DDOT = 0

CCSDS_OMM_VERS = 2.0
CREATION_DATE  = 
ORIGINATOR     = 

OBJECT_NAME    = SL-14 R/B
OBJECT_ID      = 1990-010B
CENTER_NAME    = EARTH
REF_FRAME      = TEME
TIME_SYSTEM    = UTC
MEAN_ELEMENT_THEORY = SGP/SGP4

EPOCH          = 2026-01-13T07:29:38.151168
MEAN_MOTION    = 14.83507965
ECCENTRICITY   = .00211812
INCLINATION    = 82.5042
RA_OF_ASC_NODE = 319.3962
ARG_OF_PERICENTER = 119.9744
MEAN_ANOMALY   = 240.3578

EPHEMERIS_TYPE = 0
CLASSIFICATION_TYPE = U
NORAD_CAT_ID   = 20466
ELEMENT_SET_NO = 999
REV_AT_EPOCH   = 92027
BSTAR          = .48815914E-4
MEAN_MOTION_DOT = .427E-5
MEAN_MOTION_DDOT = 0

CCSDS_OMM_VERS = 2.0
CREATION_DATE  = 
ORIGINATOR     = 

OBJECT_NAME    = SL-14 R/B
OBJECT_ID      = 1990-018B
CENTER_NAME    = EARTH
REF_FRAME      = TEME
TIME_SYSTEM    = UTC
MEAN_ELEMENT_THEORY = SGP/SGP4

EPOCH          = 2026-01-13T05:01:10.809696
MEAN_MOTION    = 14.82084719
ECCENTRICITY   = .0014886
INCLINATION    = 82.5216
RA_OF_ASC_NODE = 274.9548
ARG_OF_PERICENTER = 275.6033
MEAN_ANOMALY   = 84.3484

EPHEMERIS_TYPE = 0
CLASSIFICATION_TYPE = U
NORAD_CAT_ID   = 20511
ELEMENT_SET_NO = 999
REV_AT_EPOCH   = 91436
BSTAR          = .44006E-4
MEAN_MOTION_DOT = .373E-5
MEAN_MOTION_DDOT = 0

CCSDS_OMM_VERS = 2.0
CREATION_DATE  = 
ORIGINATOR     = 

OBJECT_NAME    = HST
OBJECT_ID      = 1990-037B
CENTER_NAME    = EARTH
REF_FRAME      = TEME
TIME_SYSTEM    = UTC
MEAN_ELEMENT_THEORY = SGP/SGP4

EPOCH          = 2026-01-13T12:41:14.027712
MEAN_MOTION    = 15.28524210
ECCENTRICITY   = .00019598
INCLINATION    = 28.4674
RA_OF_ASC_NODE = 56.0330
ARG_OF_PERICENTER = 208.9714
MEAN_ANOMALY   = 151.0772

EPHEMERIS_TYPE = 0
CLASSIFICATION_TYPE = U
NORAD_CAT_ID   = 20580
ELEMENT_SET_NO = 999
REV_AT_EPOCH   = 76486
BSTAR          = .17741638E-3
MEAN_MOTION_DOT = .5292E-4
MEAN_MOTION_DDOT = 0

CCSDS_OMM_VERS = 2.0
CREATION_DATE  = 
ORIGINATOR     = 

OBJECT_NAME    = SL-16 R/B
OBJECT_ID      = 1990-046B
CENTER_NAME    = EARTH
REF_FRAME      = TEME
TIME_SYSTEM    = UTC
MEAN_ELEMENT_THEORY = SGP/SGP4

EPOCH          = 2026-01-13T13:22:47.182656
MEAN_MOTION    = 14.15007159
ECCENTRICITY   = .00133042
INCLINATION    = 70.9997
RA_OF_ASC_NODE = 53.7004
ARG_OF_PERICENTER = 19.0091
MEAN_ANOMALY   = 341.1525

EPHEMERIS_TYPE = 0
CLASSIFICATION_TYPE = U
NORAD_CAT_ID   = 20625
ELEMENT_SET_NO = 999
REV_AT_EPOCH   = 84059
BSTAR          = .9211721E-4
MEAN_MOTION_DOT = .131E-5
MEAN_MOTION_DDOT = 0

CCSDS_OMM_VERS = 2.0
CREATION_DATE  = 
ORIGINATOR     = 

OBJECT_NAME    = COSMOS 2084
OBJECT_ID      = 1990-055A
CENTER_NAME    = EARTH
REF_FRAME      = TEME
TIME_SYSTEM    = UTC
MEAN_ELEMENT_THEORY = SGP/SGP4

EPOCH          = 2026-01-13T15:46:38.084736
MEAN_MOTION    = 15.05246929
ECCENTRICITY   = .00262984
INCLINATION    = 62.7888
RA_OF_ASC_NODE = 163.2197
ARG_OF_PERICENTER = 179.4728
MEAN_ANOMALY   = 180.6405

EPHEMERIS_TYPE = 0
CLASSIFICATION_TYPE = U
NORAD_CAT_ID   = 20663
ELEMENT_SET_NO = 999
REV_AT_EPOCH   = 92803
BSTAR          = .16082187E-3
MEAN_MOTION_DOT = .212E-4
MEAN_MOTION_DDOT = 0

CCSDS_OMM_VERS = 2.0
CREATION_DATE  = 
ORIGINATOR     = 

OBJECT_NAME    = SL-6 R/B(2)
OBJECT_ID      = 1990-055D
CENTER_NAME    = EARTH
REF_FRAME      = TEME
TIME_SYSTEM    = UTC
MEAN_ELEMENT_THEORY = SGP/SGP4

EPOCH          = 2026-01-13T13:34:58.830816
MEAN_MOTION    = 15.03259541
ECCENTRICITY   = .00168099
INCLINATION    = 62.7837
RA_OF_ASC_NODE = 81.2611
ARG_OF_PERICENTER = 328.1980
MEAN_ANOMALY   = 31.8103

EPHEMERIS_TYPE = 0
CLASSIFICATION_TYPE = U
NORAD_CAT_ID   = 20666
ELEMENT_SET_NO = 999
REV_AT_EPOCH   = 92990
BSTAR          = .11260447E-3
MEAN_MOTION_DOT = .1337E-4
MEAN_MOTION_DDOT = 0

CCSDS_OMM_VERS = 2.0
CREATION_DATE  = 
ORIGINATOR     = 

OBJECT_NAME    = SL-8 R/B
OBJECT_ID      = 1990-078B
CENTER_NAME    = EARTH
REF_FRAME      = TEME
TIME_SYSTEM    = UTC
MEAN_ELEMENT_THEORY = SGP/SGP4

EPOCH          = 2026-01-13T12:05:12.863904
MEAN_MOTION    = 14.87048970
ECCENTRICITY   = .0368801
INCLINATION    = 82.9056
RA_OF_ASC_NODE = 300.8572
ARG_OF_PERICENTER = 198.9478
MEAN_ANOMALY   = 159.7719

EPHEMERIS_TYPE = 0
CLASSIFICATION_TYPE = U
NORAD_CAT_ID   = 20775
ELEMENT_SET_NO = 999
REV_AT_EPOCH   = 80109
BSTAR          = .36125707E-3
MEAN_MOTION_DOT = .11915E-3
MEAN_MOTION_DDOT = 0

CCSDS_OMM_VERS = 2.0
CREATION_DATE  = 
ORIGINATOR     = 

OBJECT_NAME    = SL-8 R/B
OBJECT_ID      = 1991-006B
CENTER_NAME    = EARTH
REF_FRAME      = TEME
TIME_SYSTEM    = UTC
MEAN_ELEMENT_THEORY = SGP/SGP4

EPOCH          = 2026-01-13T13:32:33.012672
MEAN_MOTION    = 13.77492346
ECCENTRICITY   = .00222658
INCLINATION    = 82.9406
RA_OF_ASC_NODE = 211.0394
ARG_OF_PERICENTER = 186.7146
MEAN_ANOMALY   = 227.3199

EPHEMERIS_TYPE = 0
CLASSIFICATION_TYPE = U
NORAD_CAT_ID   = 21088
ELEMENT_SET_NO = 999
REV_AT_EPOCH   = 75648
BSTAR          = -.33945314E-4
MEAN_MOTION_DOT = -.18E-6
MEAN_MOTION_DDOT = 0

CCSDS_OMM_VERS = 2.0
CREATION_DATE  = 
ORIGINATOR     = 

OBJECT_NAME    = OKEAN-3
OBJECT_ID      = 1991-039A
CENTER_NAME    = EARTH
REF_FRAME      = TEME
TIME_SYSTEM    = UTC
MEAN_ELEMENT_THEORY = SGP/SGP4

EPOCH          = 2026-01-13T13:05:56.120352
MEAN_MOTION    = 15.04343612
ECCENTRICITY   = .00153861
INCLINATION    = 82.5160
RA_OF_ASC_NODE = 30.2520
ARG_OF_PERICENTER = 152.4723
MEAN_ANOMALY   = 207.7321

EPHEMERIS_TYPE = 0
CLASSIFICATION_TYPE = U
NORAD_CAT_ID   = 21397
ELEMENT_SET_NO = 999
REV_AT_EPOCH   = 85674
BSTAR          = .11992853E-3
MEAN_MOTION_DOT = .1704E-4
MEAN_MOTION_DDOT = 0

CCSDS_OMM_VERS = 2.0
CREATION_DATE  = 
ORIGINATOR     = 

OBJECT_NAME    = COSMOS 2151
OBJECT_ID      = 1991-042A
CENTER_NAME    = EARTH
REF_FRAME      = TEME
TIME_SYSTEM    = UTC
MEAN_ELEMENT_THEORY = SGP/SGP4

EPOCH          = 2026-01-13T13:57:32.855328
MEAN_MOTION    = 14.99843152
ECCENTRICITY   = .00113503
INCLINATION    = 82.4982
RA_OF_ASC_NODE = 136.8168
ARG_OF_PERICENTER = 242.8083
MEAN_ANOMALY   = 117.1984

EPHEMERIS_TYPE = 0
CLASSIFICATION_TYPE = U
NORAD_CAT_ID   = 21422
ELEMENT_SET_NO = 999
REV_AT_EPOCH   = 85493
BSTAR          = .11719932E-3
MEAN_MOTION_DOT = .1479E-4
MEAN_MOTION_DDOT = 0

