DELTA 2 R/B(1)          
1 20453U 90008B   26013.50749918  .00046638  00000+0  68498-3 0  9990
2 20453  35.6030 174.9141 0102178 108.2786 252.9097 15.48485338917551
COSMOS 2058             
1 20465U 90010A   26013.48640264  .00002753  00000+0  16388-3 0  9998
2 20465  82.4688 101.8025 0010310 159.1665 200.9987 15.10804709933904
SL-14 R/B               
1 20466U 90010B   26013.31224712  .00000427  00000+0  48816-4 0  9995
2 20466  82.5042 319.3962 0021181 119.9744 240.3578 14.83507965920279
SL-14 R/B               
1 20511U 90018B   26013.20915289  .00000373  00000+0  44006-4 0  9995
2 20511  82.5216 274.9548 0014886 275.6033  84.3484 14.82084719914365
HST                     
1 20580U 90037B   26013.52863458  .00005292  00000+0  17742-3 0  9998
2 20580  28.4674  56.0330 0001959 208.9714 151.0772 15.28524210764864
SL-16 R/B               
1 20625U 90046B   26013.55749054  .00000131  00000+0  92117-4 0  9993
2 20625  70.9997  53.7004 0013304  19.0091 341.1525 14.15007159840598
COSMOS 2084             
1 20663U 90055A   26013.65738524  .00002120  00000+0  16082-3 0  9992
2 20663  62.7888 163.2197 0026298 179.4728 180.6405 15.05246929928031
SL-6 R/B(2)             
1 20666U 90055D   26013.56595869  .00001337  00000+0  11260-3 0  9990
2 20666  62.7837  81.2611 0016809 328.1980  31.8103 15.03259541929909
SL-8 R/B                
1 20775U 90078B   26013.50362111  .00011915  00000+0  36126-3 0  9993
2 20775  82.9056 300.8572 0368801 198.9478 159.7719 14.87048970801095
SL-8 R/B                
1 21088U 91006B   26013.56427098 -.00000018  00000+0 -33945-4 0  9996
2 21088  82.9406 211.0394 0022265 186.7146 227.3199 13.77492346756489
OKEAN-3                 
1 21397U 91039A   26013.54578843  .00001704  00000+0  11993-3 0  9997
2 21397  82.5160  30.2520 0015386 152.4723 207.7321 15.04343612856746
COSMOS 2151             
1 21422U 91042A   26013.58163027  .00001479  00000+0  11720-3 0  9995
2 21422  82.4982 136.8168 0011350 242.8083 117.1984 14.99843152854932
